STARLINK-32352          
1 61847U 24202C   26068.46326900 -.00005288  00000+0 -18270-3 0  9993
2 61847  42.9951 227.9627 0000746 262.7330  97.3437 15.27594260 75436
TEVEL2-8                
1 63239U 25052AF  26068.66815442  .00019130  00000+0  69304-3 0  9993
2 63239  97.4055 324.2923 0008031 124.9191 235.2804 15.28392908 54807
